GUOWANG OBJECT C        
1 69574U 26137C   26178.78848985 -.00000068  00000+0  62637-4 0  9993
2 69574  49.9948 213.1230 0011895 261.0189  98.9363 13.89815395  1505
GUOWANG OBJECT D        
1 69575U 26137D   26178.78746701 -.00000118  00000+0  22933-4 0  9998
2 69575  49.9957 213.1164 0011113 259.8847 100.0798 13.89828480  1507
GUOWANG OBJECT E        
1 69576U 26137E   26178.78646209  .00000005  00000+0  12241-3 0  9995
2 69576  50.0006 213.1284 0011210 262.6312  97.3313 13.89826234  1502
GUOWANG OBJECT F        
1 69577U 26137F   26178.78550127  .00000005  00000+0  12206-3 0  9990
2 69577  50.0010 213.1215 0010791 262.5867  97.3805 13.89810620  1507
GUOWANG OBJECT G        
1 69578U 26137G   26178.28111271 -.00000007  00000+0  11082-3 0  9993
2 69578  49.9950 215.1041 0010928 261.8500  98.1159 13.90789809  1434
GUOWANG OBJECT H        
1 69579U 26137H   26176.48489301  .00000037  00000+0  14270-3 0  9990
2 69579  49.9967 222.2731 0010122 259.8752 100.1006 13.92076941  1185
GUOWANG OBJECT J        
1 69580U 26137J   26178.27848690  .00000022  00000+0  13174-3 0  9997
2 69580  49.9961 215.0979 0011832 257.3150 102.6427 13.91997107  1436
CENTISPACE-1 GROUP 05 O*
1 69582U 26138A   26178.87537801 -.00000388  00000+0 -11934-3 0  9994
2 69582  55.1413 241.6963 0010181 303.5785  56.4216 14.15475663  1539
CENTISPACE-1 GROUP 05 O*
1 69583U 26138B   26178.87399534 -.00000380  00000+0 -11508-3 0  9993
2 69583  55.1412 241.6869 0009136 303.3657  56.6442 14.15656755  1534
CENTISPACE-1 GROUP 05 O*
1 69584U 26138C   26178.87334369 -.00000268  00000+0 -58123-4 0  9999
2 69584  55.1415 241.6919 0009069 305.4067  54.6059 14.15740660  1538
CENTISPACE-1 GROUP 05 O*
1 69585U 26138D   26178.87213701 -.00000369  00000+0 -10888-3 0  9993
2 69585  55.1417 241.6757 0008617 303.8865  56.1289 14.15928130  1539
CENTISPACE-1 GROUP 05 O*
1 69586U 26138E   26178.87164118 -.00000332  00000+0 -89886-4 0  9996
2 69586  55.1414 241.6805 0008342 304.2446  55.7738 14.15994362  1530
CENTISPACE-1 GROUP 05 O*
1 69587U 26138F   26178.87204503 -.00000351  00000+0 -99838-4 0  9999
2 69587  55.1417 241.6839 0008188 308.8435  51.1808 14.15917605  1530
CENTISPACE-1 GROUP 05 O*
1 69588U 26138G   26178.87078267 -.00000322  00000+0 -85021-4 0  9993
2 69588  55.1417 241.6742 0007478 308.1591  51.8709 14.16082085  1534
SPACEMOBILE-008         
1 69589U 26139A   26178.57930403  .00000594  00000+0  50434-4 0  9990
2 69589  52.9937 215.3857 0004018  11.6673 348.4410 15.12780568  1550
SPACEMOBILE-009         
1 69590U 26139B   26178.58002351  .00000558  00000+0  48535-4 0  9994
2 69590  52.9928 215.3865 0004200   5.8110 354.2929 15.12674035  1556
SPACEMOBILE-010         
1 69591U 26139C   26178.58116892  .00000538  00000+0  47590-4 0  9999
2 69591  52.9934 215.3958 0004053 355.5161   4.5793 15.12505300  1567
KUIPER-00423            
1 69592U 26140A   26178.91668981  .00066524  00000+0  17305-2 0  9996
2 69592  51.8807 346.7216 0013863 202.6639 232.4195 15.38200410  1304
KUIPER-00428            
1 69593U 26140B   26178.91668981  .00061265  00000+0  16911-2 0  9996
2 69593  51.8818 346.9476 0007243 335.2382 349.3324 15.36472040  2817
KUIPER-00481            
1 69594U 26140C   26178.91668981  .00063206  00000+0  16842-2 0  9997
2 69594  51.8788 346.7678 0011343 211.6985 200.1101 15.37513680  2328
KUIPER-00490            
1 69595U 26140D   26178.91668981  .00060703  00000+0  16248-2 0  9997
2 69595  51.8788 346.8694 0005868 269.5595  90.8140 15.37438423  2803
KUIPER-00493            
1 69596U 26140E   26178.91668981  .00065785  00000+0  18294-2 0  9996
2 69596  51.8819 346.9727 0006817 341.1880 331.1216 15.36211057  2284
KUIPER-00496            
1 69597U 26140F   26178.91668981  .00062828  00000+0  17958-2 0  9998
2 69597  51.8806 347.0034 0008649 348.5075 306.7928 15.35360521  2824
KUIPER-00513            
1 69598U 26140G   26178.91668981  .00061451  00000+0  16325-2 0  9997
2 69598  51.8818 346.8634 0006223 270.0745  95.8925 15.37663732  2678
KUIPER-00516            
1 69599U 26140H   26178.91668981  .00061751  00000+0  16592-2 0  9997
2 69599  51.8800 346.8869 0006033 285.4820  67.0932 15.37311469  2815
KUIPER-00517            
1 69600U 26140J   26178.91668981  .00064590  00000+0  16593-2 0  9995
2 69600  51.8778 346.7806 0010393 226.5687 178.0662 15.38640096  2380
KUIPER-00520            
1 69601U 26140K   26178.91668981  .00060595  00000+0  16362-2 0  9991
2 69601  51.8829 346.9051 0005667 290.5756  55.9161 15.37169762  2740
KUIPER-00522            
1 69602U 26140L   26178.91668981  .00066457  00000+0  17304-2 0  9992
2 69602  51.8787 346.7174 0013603 200.1922 236.6111 15.38174625  2321
KUIPER-00528            
1 69603U 26140M   26178.91668981  .00060792  00000+0  16494-2 0  9998
2 69603  51.8801 346.9106 0004656 297.2889  43.6258 15.37023077  1301
