OBJECT_NAME,OBJECT_ID,EPOCH,MEAN_MOTION,ECCENTRICITY,INCLINATION,RA_OF_ASC_NODE,ARG_OF_PERICENTER,MEAN_ANOMALY,EPHEMERIS_TYPE,CLASSIFICATION_TYPE,NORAD_CAT_ID,ELEMENT_SET_NO,REV_AT_EPOCH,BSTAR,MEAN_MOTION_DOT,MEAN_MOTION_DDOT
GUOWANG OBJECT C,2026-137C,2026-06-27T18:55:25.523040,13.89815395,.00118957,49.9948,213.1230,261.0189,98.9363,0,U,69574,999,150,.62636524E-4,-.68E-6,0
GUOWANG OBJECT D,2026-137D,2026-06-27T18:53:57.149664,13.89828480,.0011113,49.9957,213.1164,259.8847,100.0798,0,U,69575,999,150,.22933E-4,-.118E-5,0
GUOWANG OBJECT E,2026-137E,2026-06-27T18:52:30.324576,13.89826234,.00112105,50.0006,213.1284,262.6312,97.3313,0,U,69576,999,150,.12241393E-3,.5E-7,0
GUOWANG OBJECT F,2026-137F,2026-06-27T18:51:07.309728,13.89810620,.0010791,50.0010,213.1215,262.5867,97.3805,0,U,69577,999,150,.12206E-3,.5E-7,0
GUOWANG OBJECT G,2026-137G,2026-06-27T06:44:48.138144,13.90789809,.0010928,49.9950,215.1041,261.8500,98.1159,0,U,69578,999,143,.11082E-3,-.7E-7,0
GUOWANG OBJECT H,2026-137H,2026-06-25T11:38:14.756064,13.92076941,.0010122,49.9967,222.2731,259.8752,100.1006,0,U,69579,999,118,.1427E-3,.37E-6,0
GUOWANG OBJECT J,2026-137J,2026-06-27T06:41:01.268160,13.91997107,.0011832,49.9961,215.0979,257.3150,102.6427,0,U,69580,999,143,.13174E-3,.22E-6,0
CENTISPACE-1 GROUP 05 OBJECT A,2026-138A,2026-06-27T21:00:32.660064,14.15475663,.00101813,55.1413,241.6963,303.5785,56.4216,0,U,69582,999,153,-.11933927E-3,-.388E-5,0
CENTISPACE-1 GROUP 05 OBJECT B,2026-138B,2026-06-27T20:58:33.197376,14.15656755,.00091364,55.1412,241.6869,303.3657,56.6442,0,U,69583,999,153,-.11508479E-3,-.38E-5,0
CENTISPACE-1 GROUP 05 OBJECT C,2026-138C,2026-06-27T20:57:36.894816,14.15740660,.00090692,55.1415,241.6919,305.4067,54.6059,0,U,69584,999,153,-.58122843E-4,-.268E-5,0
CENTISPACE-1 GROUP 05 OBJECT D,2026-138D,2026-06-27T20:55:52.637664,14.15928130,.00086173,55.1417,241.6757,303.8865,56.1289,0,U,69585,999,153,-.1088845E-3,-.369E-5,0
CENTISPACE-1 GROUP 05 OBJECT E,2026-138E,2026-06-27T20:55:09.797952,14.15994362,.00083422,55.1414,241.6805,304.2446,55.7738,0,U,69586,999,153,-.89886341E-4,-.332E-5,0
CENTISPACE-1 GROUP 05 OBJECT F,2026-138F,2026-06-27T20:55:44.690592,14.15917605,.00081881,55.1417,241.6839,308.8435,51.1808,0,U,69587,999,153,-.99837891E-4,-.351E-5,0
CENTISPACE-1 GROUP 05 OBJECT G,2026-138G,2026-06-27T20:53:55.622688,14.16082085,.00074788,55.1417,241.6742,308.1591,51.8709,0,U,69588,999,153,-.85020871E-4,-.322E-5,0
SPACEMOBILE-008,2026-139A,2026-06-27T13:54:11.868192,15.12780568,.00040189,52.9937,215.3857,11.6673,348.4410,0,U,69589,999,155,.50434047E-4,.594E-5,0
SPACEMOBILE-009,2026-139B,2026-06-27T13:55:14.031264,15.12674035,.00042,52.9928,215.3865,5.8110,354.2929,0,U,69590,999,155,.48534691E-4,.558E-5,0
SPACEMOBILE-010,2026-139C,2026-06-27T13:56:52.994688,15.12505300,.00040538,52.9934,215.3958,355.5161,4.5793,0,U,69591,999,156,.47589848E-4,.538E-5,0
KUIPER-00423,2026-140A,2026-06-27T22:00:01.999584,15.38200410,.00138631,51.8807,346.7216,202.6639,232.4195,0,U,69592,999,130,.17304832E-2,.66524E-3,0
KUIPER-00428,2026-140B,2026-06-27T22:00:01.999584,15.36472040,.00072432,51.8818,346.9476,335.2382,349.3324,0,U,69593,999,281,.16910632E-2,.61265E-3,0
KUIPER-00481,2026-140C,2026-06-27T22:00:01.999584,15.37513680,.00113437,51.8788,346.7678,211.6985,200.1101,0,U,69594,999,232,.16842242E-2,.63206E-3,0
KUIPER-00490,2026-140D,2026-06-27T22:00:01.999584,15.37438423,.00058688,51.8788,346.8694,269.5595,90.8140,0,U,69595,999,280,.16248003E-2,.60703E-3,0
KUIPER-00493,2026-140E,2026-06-27T22:00:01.999584,15.36211057,.00068171,51.8819,346.9727,341.1880,331.1216,0,U,69596,999,228,.18294057E-2,.65785E-3,0
KUIPER-00496,2026-140F,2026-06-27T22:00:01.999584,15.35360521,.00086493,51.8806,347.0034,348.5075,306.7928,0,U,69597,999,282,.17958169E-2,.62828E-3,0
KUIPER-00513,2026-140G,2026-06-27T22:00:01.999584,15.37663732,.0006223,51.8818,346.8634,270.0745,95.8925,0,U,69598,999,267,.16324846E-2,.61451E-3,0
KUIPER-00516,2026-140H,2026-06-27T22:00:01.999584,15.37311469,.00060332,51.8800,346.8869,285.4820,67.0932,0,U,69599,999,281,.16591941E-2,.61751E-3,0
KUIPER-00517,2026-140J,2026-06-27T22:00:01.999584,15.38640096,.00103933,51.8778,346.7806,226.5687,178.0662,0,U,69600,999,238,.1659266E-2,.6459E-3,0
KUIPER-00520,2026-140K,2026-06-27T22:00:01.999584,15.37169762,.0005667,51.8829,346.9051,290.5756,55.9161,0,U,69601,999,274,.16361664E-2,.60595E-3,0
KUIPER-00522,2026-140L,2026-06-27T22:00:01.999584,15.38174625,.00136031,51.8787,346.7174,200.1922,236.6111,0,U,69602,999,232,.17304201E-2,.66457E-3,0
KUIPER-00528,2026-140M,2026-06-27T22:00:01.999584,15.37023077,.00046568,51.8801,346.9106,297.2889,43.6258,0,U,69603,999,130,.16494462E-2,.60792E-3,0
